{"type": "FeatureCollection", "features": [ {"type": "Feature", "properties": {"norad_id": 40938, "name": "BEIDOU-3S IGSO-2S (C56)", "group": "gnss", "lat": 31.754066963945355, "lon": -67.24035543104584, "alt_km": 35992.97524705493, "timestamp": "2025-12-25T07:41:09.966308+00:00", "meta": {"OBJECT_NAME": "BEIDOU-3S IGSO-2S (C56)", "OBJECT_ID": "2015-053A", "EPOCH": "2025-12-24T16:58:26.308416", "MEAN_MOTION": 1.00267681, "ECCENTRICITY": 0.00606582, "INCLINATION": 49.4921, "RA_OF_ASC_NODE": 260.8653, "ARG_OF_PERICENTER": 188.5708, "MEAN_ANOMALY": 354.4321, "EPHEMERIS_TYPE": 0, "CLASSIFICATION_TYPE": "U", "NORAD_CAT_ID": 40938, "ELEMENT_SET_NO": 999, "REV_AT_EPOCH": 3760, "BSTAR": 0, "MEAN_MOTION_DOT": -1.14e-06, "MEAN_MOTION_DDOT": 0}, "tle": {"line1": "1 40938U 15053A   25358.70724894 -.00000114  00000+0  00000+0 0  9997", "line2": "2 40938  49.4921 260.8653 0060658 188.5708 354.4321  1.00267681 37606"}}, "geometry": {"type": "Point", "coordinates": [-67.24035543104584, 31.754066963945355]}}, {"type": "Feature", "properties": {"norad_id": 41019, "name": "GPS BIIF-11 (PRN 10)", "group": "gnss", "lat": 26.796948631322948, "lon": 56.80329098213231, "alt_km": 20459.92154476129, "timestamp": "2025-12-25T07:41:09.966319+00:00", "meta": {"OBJECT_NAME": "GPS BIIF-11 (PRN 10)", "OBJECT_ID": "2015-062A", "EPOCH": "2025-12-23T18:41:09.894336", "MEAN_MOTION": 2.00567076, "ECCENTRICITY": 0.0111091, "INCLINATION": 56.8401, "RA_OF_ASC_NODE": 37.5754, "ARG_OF_PERICENTER": 230.2279, "MEAN_ANOMALY": 128.8532, "EPHEMERIS_TYPE": 0, "CLASSIFICATION_TYPE": "U", "NORAD_CAT_ID": 41019, "ELEMENT_SET_NO": 999, "REV_AT_EPOCH": 7431, "BSTAR": 0, "MEAN_MOTION_DOT": -4.7e-07, "MEAN_MOTION_DDOT": 0}, "tle": {"line1": "1 41019U 15062A   25357.77858674 -.00000047  00000+0  00000+0 0  9993", "line2": "2 41019  56.8401  37.5754 0111091 230.2279 128.8532  2.00567076 74317"}}, "geometry": {"type": "Point", "coordinates": [56.80329098213231, 26.796948631322948]}}, {"type": "Feature", "properties": {"norad_id": 41028, "name": "GSAT-15 (GAGAN/PRN 139)", "group": "gnss", "lat": -0.008437031545955135, "lon": -57.09750578820758, "alt_km": 35781.42143127528, "timestamp": "2025-12-25T07:41:09.966331+00:00", "meta": {"OBJECT_NAME": "GSAT-15 (GAGAN/PRN 139)", "OBJECT_ID": "2015-065A", "EPOCH": "2025-12-24T22:06:11.834784", "MEAN_MOTION": 1.00271275, "ECCENTRICITY": 0.00023755, "INCLINATION": 0.0161, "RA_OF_ASC_NODE": 283.4762, "ARG_OF_PERICENTER": 318.0604, "MEAN_ANOMALY": 277.2137, "EPHEMERIS_TYPE": 0, "CLASSIFICATION_TYPE": "U", "NORAD_CAT_ID": 41028, "ELEMENT_SET_NO": 999, "REV_AT_EPOCH": 3705, "BSTAR": 0, "MEAN_MOTION_DOT": -2.37e-06, "MEAN_MOTION_DDOT": 0}, "tle": {"line1": "1 41028U 15065A   25358.92097031 -.00000237  00000+0  00000+0 0  9997", "line2": "2 41028   0.0161 283.4762 0002375 318.0604 277.2137  1.00271275 37055"}}, "geometry": {"type": "Point", "coordinates": [-57.09750578820758, -0.008437031545955135]}}, {"type": "Feature", "properties": {"norad_id": 41174, "name": "GSAT0209 (GALILEO 12)", "group": "gnss", "lat": -42.6755204430665, "lon": 67.13596931941719, "alt_km": 23221.22995791318, "timestamp": "2025-12-25T07:41:09.966344+00:00", "meta": {"OBJECT_NAME": "GSAT0209 (GALILEO 12)", "OBJECT_ID": "2015-079A", "EPOCH": "2025-12-21T21:22:17.332896", "MEAN_MOTION": 1.70474556, "ECCENTRICITY": 0.00025231, "INCLINATION": 55.7178, "RA_OF_ASC_NODE": 106.13, "ARG_OF_PERICENTER": 342.7574, "MEAN_ANOMALY": 17.2091, "EPHEMERIS_TYPE": 0, "CLASSIFICATION_TYPE": "U", "NORAD_CAT_ID": 41174, "ELEMENT_SET_NO": 999, "REV_AT_EPOCH": 6175, "BSTAR": 0, "MEAN_MOTION_DOT": 5e-08, "MEAN_MOTION_DDOT": 0}, "tle": {"line1": "1 41174U 15079A   25355.89047839  .00000005  00000+0  00000+0 0  9990", "line2": "2 41174  55.7178 106.1300 0002523 342.7574  17.2091  1.70474556 61755"}}, "geometry": {"type": "Point", "coordinates": [67.13596931941719, -42.6755204430665]}}, {"type": "Feature", "properties": {"norad_id": 41175, "name": "GSAT0208 (GALILEO 11)", "group": "gnss", "lat": 8.386249126245032, "lon": -79.72965048516899, "alt_km": 23227.022728894968, "timestamp": "2025-12-25T07:41:09.966355+00:00", "meta": {"OBJECT_NAME": "GSAT0208 (GALILEO 11)", "OBJECT_ID": "2015-079B", "EPOCH": "2025-12-24T10:58:05.169792", "MEAN_MOTION": 1.70474188, "ECCENTRICITY": 0.0001919, "INCLINATION": 55.7178, "RA_OF_ASC_NODE": 106.0566, "ARG_OF_PERICENTER": 349.2148, "MEAN_ANOMALY": 10.7717, "EPHEMERIS_TYPE": 0, "CLASSIFICATION_TYPE": "U", "NORAD_CAT_ID": 41175, "ELEMENT_SET_NO": 999, "REV_AT_EPOCH": 6221, "BSTAR": 0, "MEAN_MOTION_DOT": 1.6e-07, "MEAN_MOTION_DDOT": 0}, "tle": {"line1": "1 41175U 15079B   25358.45700428  .00000016  00000+0  00000+0 0  9998", "line2": "2 41175  55.7178 106.0566 0001919 349.2148  10.7717  1.70474188 62212"}}, "geometry": {"type": "Point", "coordinates": [-79.72965048516899, 8.386249126245032]}}, {"type": "Feature", "properties": {"norad_id": 41241, "name": "IRNSS-1E", "group": "gnss", "lat": -32.1933292121356, "lon": -40.761221675971136, "alt_km": 35759.59786854103, "timestamp": "2025-12-25T07:41:09.966367+00:00", "meta": {"OBJECT_NAME": "IRNSS-1E", "OBJECT_ID": "2016-003A", "EPOCH": "2025-12-24T15:55:26.719680", "MEAN_MOTION": 1.0026854, "ECCENTRICITY": 0.00215442, "INCLINATION": 32.8513, "RA_OF_ASC_NODE": 62.279, "ARG_OF_PERICENTER": 188.9872, "MEAN_ANOMALY": 192.7105, "EPHEMERIS_TYPE": 0, "CLASSIFICATION_TYPE": "U", "NORAD_CAT_ID": 41241, "ELEMENT_SET_NO": 999, "REV_AT_EPOCH": 3633, "BSTAR": 0, "MEAN_MOTION_DOT": -2.92e-06, "MEAN_MOTION_DDOT": 0}, "tle": {"line1": "1 41241U 16003A   25358.66350370 -.00000292  00000+0  00000+0 0  9997", "line2": "2 41241  32.8513  62.2790 0021544 188.9872 192.7105  1.00268540 36337"}}, "geometry": {"type": "Point", "coordinates": [-40.761221675971136, -32.1933292121356]}}, {"type": "Feature", "properties": {"norad_id": 41328, "name": "GPS BIIF-12 (PRN 32)", "group": "gnss", "lat": -21.58379259102113, "lon": 80.54530646903972, "alt_km": 20181.77135002604, "timestamp": "2025-12-25T07:41:09.966380+00:00", "meta": {"OBJECT_NAME": "GPS BIIF-12 (PRN 32)", "OBJECT_ID": "2016-007A", "EPOCH": "2025-12-24T08:38:21.777792", "MEAN_MOTION": 2.00560136, "ECCENTRICITY": 0.00927395, "INCLINATION": 55.4125, "RA_OF_ASC_NODE": 96.3958, "ARG_OF_PERICENTER": 243.8734, "MEAN_ANOMALY": 115.1833, "EPHEMERIS_TYPE": 0, "CLASSIFICATION_TYPE": "U", "NORAD_CAT_ID": 41328, "ELEMENT_SET_NO": 999, "REV_AT_EPOCH": 7233, "BSTAR": 0, "MEAN_MOTION_DOT": 1.2e-07, "MEAN_MOTION_DDOT": 0}, "tle": {"line1": "1 41328U 16007A   25358.35997428  .00000012  00000+0  00000+0 0  9993", "line2": "2 41328  55.4125  96.3958 0092739 243.8734 115.1833  2.00560136 72333"}}, "geometry": {"type": "Point", "coordinates": [80.54530646903972, -21.58379259102113]}}, {"type": "Feature", "properties": {"norad_id": 41330, "name": "COSMOS 2514 (751)", "group": "gnss", "lat": 63.28341982320739, "lon": 71.88024198842717, "alt_km": 19137.811035948427, "timestamp": "2025-12-25T07:41:09.966392+00:00", "meta": {"OBJECT_NAME": "COSMOS 2514 (751)", "OBJECT_ID": "2016-008A", "EPOCH": "2025-12-24T06:01:31.134720", "MEAN_MOTION": 2.13102586, "ECCENTRICITY": 0.00116213, "INCLINATION": 65.1271, "RA_OF_ASC_NODE": 319.0099, "ARG_OF_PERICENTER": 220.0868, "MEAN_ANOMALY": 139.8285, "EPHEMERIS_TYPE": 0, "CLASSIFICATION_TYPE": "U", "NORAD_CAT_ID": 41330, "ELEMENT_SET_NO": 999, "REV_AT_EPOCH": 7689, "BSTAR": 0, "MEAN_MOTION_DOT": -3.3e-07, "MEAN_MOTION_DDOT": 0}, "tle": {"line1": "1 41330U 16008A   25358.25105480 -.00000033  00000+0  00000+0 0  9999", "line2": "2 41330  65.1271 319.0099 0011621 220.0868 139.8285  2.13102586 76897"}}, "geometry": {"type": "Point", "coordinates": [71.88024198842717, 63.28341982320739]}}, {"type": "Feature", "properties": {"norad_id": 41384, "name": "IRNSS-1F", "group": "gnss", "lat": 3.092245593769037, "lon": -118.1581071672984, "alt_km": 35711.75653953688, "timestamp": "2025-12-25T07:41:09.966403+00:00", "meta": {"OBJECT_NAME": "IRNSS-1F", "OBJECT_ID": "2016-015A", "EPOCH": "2025-12-24T21:48:50.995584", "MEAN_MOTION": 1.00278499, "ECCENTRICITY": 0.0022662, "INCLINATION": 4.9116, "RA_OF_ASC_NODE": 100.9971, "ARG_OF_PERICENTER": 182.2577, "MEAN_ANOMALY": 170.1613, "EPHEMERIS_TYPE": 0, "CLASSIFICATION_TYPE": "U", "NORAD_CAT_ID": 41384, "ELEMENT_SET_NO": 999, "REV_AT_EPOCH": 3591, "BSTAR": 0, "MEAN_MOTION_DOT": 1.78e-06, "MEAN_MOTION_DDOT": 0}, "tle": {"line1": "1 41384U 16015A   25358.90892356  .00000178  00000+0  00000+0 0  9992", "line2": "2 41384   4.9116 100.9971 0022662 182.2577 170.1613  1.00278499 35917"}}, "geometry": {"type": "Point", "coordinates": [-118.1581071672984, 3.092245593769037]}}, {"type": "Feature", "properties": {"norad_id": 41434, "name": "BEIDOU-2 IGSO-6 (C13)", "group": "gnss", "lat": -59.35802483923388, "lon": -62.87968135829758, "alt_km": 35571.26381307357, "timestamp": "2025-12-25T07:41:09.966415+00:00", "meta": {"OBJECT_NAME": "BEIDOU-2 IGSO-6 (C13)", "OBJECT_ID": "2016-021A", "EPOCH": "2025-12-24T14:08:03.685920", "MEAN_MOTION": 1.00290884, "ECCENTRICITY": 0.00608322, "INCLINATION": 59.9811, "RA_OF_ASC_NODE": 39.7798, "ARG_OF_PERICENTER": 230.476, "MEAN_ANOMALY": 128.7548, "EPHEMERIS_TYPE": 0, "CLASSIFICATION_TYPE": "U", "NORAD_CAT_ID": 41434, "ELEMENT_SET_NO": 999, "REV_AT_EPOCH": 3572, "BSTAR": 0, "MEAN_MOTION_DOT": -1.33e-06, "MEAN_MOTION_DDOT": 0}, "tle": {"line1": "1 41434U 16021A   25358.58893155 -.00000133  00000+0  00000+0 0  9999", "line2": "2 41434  59.9811  39.7798 0060832 230.4760 128.7548  1.00290884 35729"}}, "geometry": {"type": "Point", "coordinates": [-62.87968135829758, -59.35802483923388]}}]}